{
    "links": {
        "self": "http://www.neowsapp.com/rest/v1/neo/3798969?api_key=iIulBulltgU6a56xZRHN4H3l9WmuAYTsLGpBGhQ2"
    },
    "id": "3798969",
    "neo_reference_id": "3798969",
    "name": "(2018 BE6)",
    "designation": "2018 BE6",
    "nasa_jpl_url": "http://ssd.jpl.nasa.gov/sbdb.cgi?sstr=3798969",
    "absolute_magnitude_h": 24.5,
    "estimated_diameter": {
        "kilometers": {
            "estimated_diameter_min": 0.0334622374,
            "estimated_diameter_max": 0.0748238376
        },
        "meters": {
            "estimated_diameter_min": 33.4622374455,
            "estimated_diameter_max": 74.8238376074
        },
        "miles": {
            "estimated_diameter_min": 0.0207924639,
            "estimated_diameter_max": 0.0464933628
        },
        "feet": {
            "estimated_diameter_min": 109.7842471007,
            "estimated_diameter_max": 245.4850393757
        }
    },
    "is_potentially_hazardous_asteroid": false,
    "close_approach_data": [
        {
            "close_approach_date": "1921-06-18",
            "close_approach_date_full": "1921-Jun-18 16:56",
            "epoch_date_close_approach": -1531724640000,
            "relative_velocity": {
                "kilometers_per_second": "20.9510090918",
                "kilometers_per_hour": "75423.632730552",
                "miles_per_hour": "46865.3122374922"
            },
            "miss_distance": {
                "astronomical": "0.3946775516",
                "lunar": "153.5295675724",
                "kilometers": "59042921.056175092",
                "miles": "36687569.9190845896"
            },
            "orbiting_body": "Earth"
        },
        {
            "close_approach_date": "2018-01-30",
            "close_approach_date_full": "2018-Jan-30 04:18",
            "epoch_date_close_approach": 1517285880000,
            "relative_velocity": {
                "kilometers_per_second": "17.2642149839",
                "kilometers_per_hour": "62151.1739420688",
                "miles_per_hour": "38618.3224975038"
            },
            "miss_distance": {
                "astronomical": "0.0072850464",
                "lunar": "2.8338830496",
                "kilometers": "1089827.424291168",
                "miles": "677187.3598593984"
            },
            "orbiting_body": "Moon"
        },
        {
            "close_approach_date": "2018-01-30",
            "close_approach_date_full": "2018-Jan-30 09:03",
            "epoch_date_close_approach": 1517302980000,
            "relative_velocity": {
                "kilometers_per_second": "17.0350222413",
                "kilometers_per_hour": "61326.0800688053",
                "miles_per_hour": "38105.6412516418"
            },
            "miss_distance": {
                "astronomical": "0.0087288366",
                "lunar": "3.3955174374",
                "kilometers": "1305815.362938042",
                "miles": "811396.0415952996"
            },
            "orbiting_body": "Earth"
        },
        {
            "close_approach_date": "2023-06-17",
            "close_approach_date_full": "2023-Jun-17 09:20",
            "epoch_date_close_approach": 1686993600000,
            "relative_velocity": {
                "kilometers_per_second": "19.2990796739",
                "kilometers_per_hour": "69476.686826161",
                "miles_per_hour": "43170.1113226221"
            },
            "miss_distance": {
                "astronomical": "0.3490693848",
                "lunar": "135.7879906872",
                "kilometers": "52220036.448290376",
                "miles": "32448026.0140081488"
            },
            "orbiting_body": "Earth"
        }
    ],
    "orbital_data": {
        "orbit_id": "5",
        "orbit_determination_date": "2018-02-02 06:20:22",
        "first_observation_date": "2018-01-25",
        "last_observation_date": "2018-01-30",
        "data_arc_in_days": 5,
        "observations_used": 119,
        "orbit_uncertainty": "7",
        "minimum_orbit_intersection": ".00580875",
        "jupiter_tisserand_invariant": "3.715",
        "epoch_osculation": "2459000.5",
        "eccentricity": ".5511639173623163",
        "semi_major_axis": "1.872521031721863",
        "inclination": "20.66268430163548",
        "ascending_node_longitude": "309.088739341151",
        "orbital_period": "935.9194727606607",
        "perihelion_distance": ".8404550045347151",
        "perihelion_argument": "235.4454332569246",
        "aphelion_distance": "2.904587058909012",
        "perihelion_time": "2459122.996651211949",
        "mean_anomaly": "312.8818496465038",
        "mean_motion": ".3846484772222081",
        "equinox": "J2000",
        "orbit_class": {
            "orbit_class_type": "APO",
            "orbit_class_description": "Near-Earth asteroid orbits which cross the Earth’s orbit similar to that of 1862 Apollo",
            "orbit_class_range": "a (semi-major axis) > 1.0 AU; q (perihelion) < 1.017 AU"
        }
    },
    "is_sentry_object": false
}